IRIDIUM 119             
1 42959U 17061E   23298.87924364  .00000416  00000+0  14137-3 0  9990
2 42959  86.3959  68.6514 0001772  85.0126 275.1272 14.34213718316459
IRIDIUM 107             
1 42960U 17061F   23298.40988763  .00000433  00000+0  14746-3 0  9999
2 42960  86.3958  68.8632 0001838  95.8792 264.2614 14.34220179316407
IRIDIUM 132             
1 42961U 17061G   23297.43947274  .00000454  00000+0  15491-3 0  9995
2 42961  86.3955  69.2550 0001878  94.0905 266.0505 14.34220663316250
IRIDIUM 136             
1 42962U 17061H   23298.44794455  .00000158  00000+0  49279-4 0  9992
2 42962  86.3957  68.8356 0002025  86.6447 273.4980 14.34216866316412
IRIDIUM 139             
1 42963U 17061J   23298.45428768  .00000252  00000+0  82752-4 0  9993
2 42963  86.3957  68.8796 0001944  96.4560 263.6857 14.34218201316425
IRIDIUM 125             
1 42964U 17061K   23297.60437940  .00000386  00000+0  13088-3 0  9995
2 42964  86.3958  69.2781 0001830  91.4138 268.7267 14.34219304316310
IRIDIUM 135             
1 43070U 17083A   23298.55526317  .00000318  00000+0  10645-3 0  9991
2 43070  86.4020   5.5912 0002460 100.2322 259.9151 14.34215291305743
IRIDIUM 138             
1 43071U 17083B   23298.58063442  .00000352  00000+0  11874-3 0  9993
2 43071  86.4007   5.3273 0002008  91.3342 268.8084 14.34219721305732
